[{"OBJECT_NAME":"TIANQI-6","OBJECT_ID":"2020-076D","EPOCH":"2026-03-09T22:50:24.728640","MEAN_MOTION":15.06417552,"ECCENTRICITY":0.00106023,"INCLINATION":34.9994,"RA_OF_ASC_NODE":297.1791,"ARG_OF_PERICENTER":9.4595,"MEAN_ANOMALY":350.6312,"EPHEMERIS_TYPE":0,"CLASSIFICATION_TYPE":"U","NORAD_CAT_ID":46810,"ELEMENT_SET_NO":999,"REV_AT_EPOCH":29360,"BSTAR":0.00037023286,"MEAN_MOTION_DOT":5.552e-5,"MEAN_MOTION_DDOT":0},{"OBJECT_NAME":"STARLINK-3271","OBJECT_ID":"2021-125M","EPOCH":"2026-03-09T18:00:52.490592","MEAN_MOTION":15.08835168,"ECCENTRICITY":0.00012555,"INCLINATION":53.2161,"RA_OF_ASC_NODE":258.8616,"ARG_OF_PERICENTER":85.6499,"MEAN_ANOMALY":274.4636,"EPHEMERIS_TYPE":0,"CLASSIFICATION_TYPE":"U","NORAD_CAT_ID":50167,"ELEMENT_SET_NO":999,"REV_AT_EPOCH":23646,"BSTAR":-6.950945e-6,"MEAN_MOTION_DOT":-3.98e-6,"MEAN_MOTION_DDOT":0}]
